FLOCK 4G-15             
1 62678U 25009BX  26068.71779869  .00012647  00000+0  47575-3 0  9991
2 62678  97.4054 151.1927 0003699 316.8208  43.2740 15.27266411121358
STARLINK-34766          
1 66505U 25263W   26068.16835736  .00033600  00000+0  12253-2 0  9997
2 66505  43.0014 353.2552 0001371 268.5653  91.5042 15.27571596 18826
